MALLIGYONG-1            
1 58400U 23179A   24054.44612673  .00000602  00000+0  29800-4 0  9997
2 58400  97.4207 303.0044 0009967 312.2879  47.7511 15.21536350 14275
